INTELSAT 10 (IS-10)     
1 26766U 01019A   26085.48586476  .00000041  00000+0  00000+0 0  9990
2 26766   8.8797  60.0857 0005491 276.9920  66.9127  0.99038033 44754
INTELSAT 902 (IS-902)   
1 26900U 01039A   26085.36123360 -.00000296  00000+0  00000+0 0  9991
2 26900   5.9087  72.7821 0004636 292.7795 258.1963  1.00271894 89862
INTELSAT 904 (IS-904)   
1 27380U 02007A   26085.32799759 -.00000238  00000+0  00000+0 0  9993
2 27380   6.7141  70.1644 0006879 319.5126 240.6914  1.00270566 50930
DIRECTV 5 (TEMPO 1)     
1 27426U 02023A   26085.55701921 -.00000071  00000+0  00000+0 0  9996
2 27426   4.6674  76.3234 0003465 287.4968 270.5978  1.00271368 87299
INTELSAT 905 (IS-905)   
1 27438U 02027A   26083.02528424  .00000090  00000+0  00000+0 0  9998
2 27438   6.5401  70.8110 0002924 296.5315  46.0717  1.00272842 50508
GALAXY 3C (G-3C)        
1 27445U 02030A   26085.17286362 -.00000166  00000+0  00000+0 0  9995
2 27445   3.5176  79.1254 0001128  28.7887  43.0849  1.00270771 45660
INTELSAT 906 (IS-906)   
1 27513U 02041A   26085.48959144 -.00000001  00000+0  00000+0 0  9990
2 27513   5.5930  73.9275 0003119 300.5655  49.8497  1.00273651 86193
GALAXY 13 (HORIZONS-1)  
1 27954U 03044A   26085.44720009  .00000117  00000+0  00000+0 0  9992
2 27954   1.2045  84.9257 0002199 281.4238 188.5139  1.00271135 45740
INTELSAT 10-02          
1 28358U 04022A   26085.33406429 -.00000027  00000+0  00000+0 0  9994
2 28358   0.0314  79.0371 0001151 330.1646 253.7856  1.00270885 79726
DIRECTV 8               
1 28659U 05019A   26085.45327794 -.00000014  00000+0  00000+0 0  9991
2 28659   0.0013 180.1223 0003133 190.5141 217.3746  1.00271638 76241
GALAXY 28 (G-28)        
1 28702U 05022A   26085.17572521 -.00000214  00000+0  00000+0 0  9995
2 28702   3.0846  79.9552 0002188 303.8291 195.9997  1.00270607 51147
GALAXY 16 (G-16)        
1 29236U 06023A   26085.45726463 -.00000143  00000+0  00000+0 0  9998
2 29236   0.0184 202.4310 0002646 162.7292 244.3464  1.00271845 72145
DIRECTV 9S              
1 29494U 06043A   26085.54693802 -.00000128  00000+0  00000+0 0  9999
2 29494   2.2077  81.8827 0003400 292.5192 265.2860  1.00271427 50557
GALAXY 17 (G-17)        
1 31307U 07016B   26085.46003797 -.00000221  00000+0  00000+0 0  9999
2 31307   2.7629  80.9230 0003592 292.3388 251.2540  1.00271085 68971
DIRECTV 10              
1 31862U 07032A   26085.45808788 -.00000004  00000+0  00000+0 0  9994
2 31862   0.1893  95.3428 0006819 284.0965 225.4963  0.98335855 44759
INTELSAT 11 (IS-11)     
1 32253U 07044B   26085.50250481 -.00000270  00000+0  00000+0 0  9994
2 32253   3.3504  79.6563 0003835 212.9524 201.6945  0.99051177 67630
HORIZONS-2              
1 32388U 07063B   26085.46220465 -.00000268  00000+0  00000+0 0  9995
2 32388   2.3890  81.6342 0002585 282.7117 272.1444  1.00272891 66983
DIRECTV 11              
1 32729U 08013A   26085.18315787 -.00000140  00000+0  00000+0 0  9990
2 32729   0.0121  61.9285 0000371 251.5660 196.8690  1.00271298 44766
GALAXY 18 (G-18)        
1 32951U 08024A   26085.45249794  .00000010  00000+0  00000+0 0  9998
2 32951   0.0166 146.3891 0002850 217.0253 220.3669  1.00271455 45026
INTELSAT 25 (IS-25)     
1 33153U 08034A   26085.47061135 -.00000239  00000+0  00000+0 0  9991
2 33153   2.4944  81.3015 0003027 259.6418 340.8778  1.00269914 64868
GALAXY 19 (G-19)        
1 33376U 08045A   26085.45990949 -.00000155  00000+0  00000+0 0  9999
2 33376   0.0251 247.1102 0002767 108.9522 256.4045  1.00271935 64079
FM-5                    
1 35493U 09034A   26085.10327001 -.00000214  00000+0  00000+0 0  9991
2 35493   0.0265 258.7621 0000702 357.5152 238.2838  1.00269923 45811
INTELSAT 14 (IS-14)     
1 36097U 09064A   26085.46792468 -.00000289  00000+0  00000+0 0  9999
2 36097   0.0163 141.2739 0002400 218.7264 307.3679  1.00271954 59772
INTELSAT 15 (IS-15)     
1 36106U 09067A   26085.49375145 -.00000201  00000+0  00000+0 0  9999
2 36106   0.0167 146.0315 0002251 215.0352  85.7730  1.00271496 40396
DIRECTV 12              
1 36131U 09075A   26085.17130362 -.00000118  00000+0  00000+0 0  9998
2 36131   0.0368   2.3011 0000367 354.7980 145.4473  1.00271752 45723
INTELSAT 16 (IS-16)     
1 36397U 10006A   26085.46177131 -.00000260  00000+0  00000+0 0  9993
2 36397   0.0134 111.6519 0001854 258.1182 264.1641  1.00271883 58824
XM-5                    
1 37185U 10053A   26085.45405794 -.00000039  00000+0  00000+0 0  9993
2 37185   0.0646 270.8895 0003745 267.2203  54.0384  1.00273033 56657
INTELSAT 17 (IS-17)     
1 37238U 10065B   26085.24002889 -.00000016  00000+0  00000+0 0  9995
2 37238   0.0193 204.6872 0002501 167.3953 324.0124  1.00270497 52417
INTELSAT 28 (IS-28)     
1 37392U 11016A   26085.47061135 -.00000240  00000+0  00000+0 0  9996
2 37392   1.5924  83.6305 0004485 282.0672 315.9274  1.00271318 52450
INTELSAT 18 (IS-18)     
1 37834U 11056A   26085.47266952  .00000037  00000+0  00000+0 0  9998
2 37834   0.0326 259.9574 0001775  92.5409 181.5554  1.00272990 52981
INTELSAT 22 (IS-22)     
1 38098U 12011A   26085.49115142 -.00000074  00000+0  00000+0 0  9991
2 38098   0.0196 131.2221 0001728 232.3291  69.2836  1.00271257  6351
INTELSAT 19 (IS-19)     
1 38356U 12030A   26085.43844672 -.00000072  00000+0  00000+0 0  9998
2 38356   0.0193 212.3377 0002933 156.8784 138.5034  1.00270733 49629
INTELSAT 20 (IS-20)     
1 38740U 12043A   26085.20501709 -.00000039  00000+0  00000+0 0  9998
2 38740   0.0109 164.4880 0002459   5.4351 156.0241  1.00271947 49916
INTELSAT 21 (IS-21)     
1 38749U 12045A   26085.46541133 -.00000301  00000+0  00000+0 0  9994
2 38749   0.0294 257.1879 0001627  98.3437 297.9078  1.00272657 49697
INTELSAT 23 (IS-23)     
1 38867U 12057A   26085.46636468 -.00000301  00000+0  00000+0 0  9994
2 38867   0.0292 253.8843 0000631 100.6602 304.2496  1.00269343 49127
FM-6                    
1 39360U 13058A   26085.45379794 -.00000030  00000+0  00000+0 0  9999
2 39360   0.0067 170.3333 0002938   3.6913  56.8721  1.00263340 45243
INTELSAT 30 (IS-30)     
1 40271U 14062A   26085.17277697 -.00000165  00000+0  00000+0 0  9995
2 40271   0.0200  81.4946 0000979  47.9149  21.3477  1.00270451  5963
DIRECTV 14              
1 40333U 14078B   26085.51658376  .00000000  00000+0  00000+0 0  9993
2 40333   0.0178 159.2337 0000531  19.0997  92.3719  1.00268992 41211
DIRECTV 15              
1 40663U 15026A   26085.46535723 -.00000118  00000+0  00000+0 0  9998
2 40663   0.0286  97.4631 0000430 110.5260  40.5576  1.00269142 39632
SKY MEXICO-1            
1 40664U 15026B   26085.46125131 -.00000250  00000+0  00000+0 0  9994
2 40664   0.0176 219.9807 0002198 162.0350 249.1212  1.00270730 39620
INTELSAT 34 (IS-34)     
1 40874U 15039A   26085.32323090 -.00000301  00000+0  00000+0 0  9997
2 40874   0.0216 269.9160 0000421 332.1222   2.5946  1.00269747 38798
INTELSAT 31 (IS-31)     
1 41581U 16035A   26085.17277697 -.00000165  00000+0  00000+0 0  9992
2 41581   0.0219 233.7891 0001985  19.5959 257.3683  1.00270615 35854
INTELSAT 36 (IS-36)     
1 41747U 16053A   26085.18892120 -.00000040  00000+0  00000+0 0  9993
2 41747   0.0165 118.2269 0001339 208.7683 353.1452  1.00273848 35123
INTELSAT 32E (IS-32E)   
1 41945U 17007B   26085.40953330 -.00000285  00000+0  00000+0 0  9990
2 41945   0.0032  84.0698 0000599 181.2035  22.8173  1.00268986 33399
INTELSAT 35E (IS-35E)   
1 42818U 17041A   26085.47000469 -.00000254  00000+0  00000+0 0  9997
2 42818   0.0121 229.8305 0002131 125.6320 323.1366  1.00271551 31981
INTELSAT 37E (IS-37E)   
1 42950U 17059A   26085.38447455 -.00000156  00000+0  00000+0 0  9994
2 42950   0.0014 137.6323 0001911 228.6683 297.9319  1.00271076 31232
AZERSPACE 2 (IS-38)     
1 43632U 18074A   26085.12927013  .00000000  00000+0  00000+0 0  9992
2 43632   0.0215 166.7806 0001430 198.2156 270.2322  1.00271590 27611
HORIZONS-3E             
1 43633U 18074B   26085.29628066 -.00000046  00000+0  00000+0 0  9998
2 43633   0.0110  70.2947 0000946 243.6056 145.4912  1.00271796 27511
AT&T T-16               
1 44333U 19034A   26085.51658368 -.00000131  00000+0  00000+0 0  9991
2 44333   0.0230 102.9738 0001096  90.1574  75.9279  1.00271171 24809
INTELSAT 39 (IS-39)     
1 44476U 19049B   26085.24558929  .00000000  00000+0  00000+0 0  9991
2 44476   0.0211 171.9889 0000571  31.5809 130.4781  1.00269654 24297
GALAXY 30 (G-30)        
1 46114U 20056C   26085.45215126  .00000021  00000+0  00000+0 0  9997
2 46114   0.0167 194.7953 0002036 176.9828 209.8724  1.00270939 20467
GALAXY 33 (G-33)        
1 54026U 22128A   26085.49558669  .00000063  00000+0  00000+0 0  9992
2 54026   0.0155 102.9990 0001838 248.1914 238.1512  1.00268593 12918
GALAXY 34 (G-34)        
1 54027U 22128B   26085.23743056  .00000000  00000+0  00000+0 0  9992
2 54027   0.0200 184.3142 0001562 180.0053 135.9332  1.00265969 13082
GALAXY 31 (G-31)        
1 54243U 22153A   26085.50230626 -.00000003  00000+0  00000+0 0  9998
2 54243   0.0117 150.2994 0001409 210.9771 242.4850  1.00270696  6305
GALAXY 32 (G-32)        
1 54244U 22153B   26085.03098972  .00000000  00000+0  00000+0 0  9999
2 54244   0.0157 152.0710 0002977 204.5791 106.9958  1.00269611 12314
GALAXY 35 (G-35)        
1 54741U 22170A   26085.45839128 -.00000178  00000+0  00000+0 0  9999
2 54741   0.0102 175.3900 0001971 183.6984 256.7170  1.00271655 12062
GALAXY 36 (G-36)        
1 54742U 22170B   26085.45925797 -.00000201  00000+0  00000+0 0  9995
2 54742   0.0138 199.5847 0002089 204.8986 215.7418  1.00271728 11946
GALAXY 37 (G-37)        
1 57493U 23112A   26085.45171794  .00000033  00000+0  00000+0 0  9990
2 57493   0.0183 220.5024 0002018 135.5350 223.4674  1.00270830  9716
